H1 CPF  1  DLR 2021 06 28 10  6792 technosat            
H2  1704205 6203    42829 2021 06 28 00 00 00 2021 07 05 00 00 00    60 1 1  0 0 0
H9
10 0 59399  72000.000000  0      -6831482.657      -1312065.356        487205.793
10 0 59399  72060.000000  0      -6801487.611      -1215398.704        934588.841
10 0 59399  72120.000000  0      -6741933.648      -1113996.613       1378000.396
10 0 59399  72180.000000  0      -6653022.387      -1008542.793       1815554.032
10 0 59399  72240.000000  0      -6535087.023       -899736.264       2245387.129
10 0 59399  72300.000000  0      -6388591.092       -788287.225       2665669.090
10 0 59399  72360.000000  0      -6214126.637       -674912.847       3074609.421
10 0 59399  72420.000000  0      -6012411.689       -560333.045       3470465.642
10 0 59399  72480.000000  0      -5784287.115       -445266.272       3851550.965
10 0 59399  72540.000000  0      -5530712.836       -330425.387       4216241.645
10 0 59399  72600.000000  0      -5252763.538       -216513.574       4562983.993
10 0 59399  72660.000000  0      -4951623.868       -104220.332       4890301.074
10 0 59399  72720.000000  0      -4628583.139          5782.444       5196799.012
10 0 59399  72780.000000  0      -4285029.607        112844.251       5481172.987
10 0 59399  72840.000000  0      -3922444.195        216339.591       5742212.833
10 0 59399  72900.000000  0      -3542393.830        315671.417       5978808.145
10 0 59399  72960.000000  0      -3146524.369        410274.394       6189952.935
10 0 59399  73020.000000  0      -2736553.261        499617.913       6374749.785
10 0 59399  73080.000000  0      -2314261.914        583208.912       6532413.639
10 0 59399  73140.000000  0      -1881487.696        660594.496       6662275.067
10 0 59399  73200.000000  0      -1440115.736        731364.300       6763782.939
10 0 59399  73260.000000  0       -992070.621        795152.592       6836506.611
10 0 59399  73320.000000  0       -539307.904        851640.098       6880137.702
10 0 59399  73380.000000  0        -83805.476        900555.570       6894491.309
10 0 59399  73440.000000  0        372445.124        941677.068       6879506.759
10 0 59399  73500.000000  0        827447.491        974832.987       6835247.877
10 0 59399  73560.000000  0       1279209.180        999902.803       6761902.723
10 0 59399  73620.000000  0       1725750.501       1016817.500       6659782.810
10 0 59399  73680.000000  0       2165113.269       1025559.720       6529321.838
10 0 59399  73740.000000  0       2595369.480       1026163.620       6371073.966
10 0 59399  73800.000000  0       3014629.959       1018714.440       6185711.589
10 0 59399  73860.000000  0       3421052.857       1003347.770       5974022.515
10 0 59399  73920.000000  0       3812851.865        980248.561       5736906.654
10 0 59399  73980.000000  0       4188304.215        949649.846       5475372.302
10 0 59399  74040.000000  0       4545758.453        911831.165       5190531.990
10 0 59399  74100.000000  0       4883641.975        867116.713       4883597.912
10 0 59399  74160.000000  0       5200468.309        815873.256       4555876.811
10 0 59399  74220.000000  0       5494843.949        758507.822       4208764.367
10 0 59399  74280.000000  0       5765474.771        695465.134       3843739.212
10 0 59399  74340.000000  0       6011172.031        627224.846       3462356.532
10 0 59399  74400.000000  0       6230857.786        554298.554       3066241.236
10 0 59399  74460.000000  0       6423569.758        477226.589       2657080.950
10 0 59399  74520.000000  0       6588465.838        396574.629       2236618.767
10 0 59399  74580.000000  0       6724828.049        312930.210       1806645.563
10 0 59399  74640.000000  0       6832065.750        226899.116       1368992.037
10 0 59399  74700.000000  0       6909718.196        139101.645        925520.697
10 0 59399  74760.000000  0       6957456.598         50168.780        478117.728
10 0 59399  74820.000000  0       6975085.550        -39261.692         28684.611
10 0 59399  74880.000000  0       6962543.641       -128549.097       -420870.295
10 0 59399  74940.000000  0       6919903.474       -217053.811       -868640.047
10 0 59399  75000.000000  0       6847371.096       -304141.159      -1312727.463
10 0 59399  75060.000000  0       6745284.697       -389185.271      -1751253.396
10 0 59399  75120.000000  0       6614112.681       -471572.898      -2182364.808
10 0 59399  75180.000000  0       6454451.181       -550707.131      -2604242.694
10 0 59399  75240.000000  0       6267020.955       -626011.022      -3015109.818
10 0 59399  75300.000000  0       6052663.726       -696931.060      -3413238.192
10 0 59399  75360.000000  0       5812337.974       -762940.500      -3796956.288
10 0 59399  75420.000000  0       5547114.209       -823542.512      -4164655.931
10 0 59399  75480.000000  0       5258169.775       -878273.135      -4514798.816
10 0 59399  75540.000000  0       4946783.277       -926704.021      -4845922.675
10 0 59399  75600.000000  0       4614328.612       -968445.005      -5156647.098
10 0 59399  75660.000000  0       4262268.619      -1003146.454      -5445678.969
10 0 59399  75720.000000  0       3892148.391      -1030501.403      -5711817.493
10 0 59399  75780.000000  0       3505588.281      -1050247.444      -5953958.784
10 0 59399  75840.000000  0       3104276.672      -1062168.344      -6171100.007
10 0 59399  75900.000000  0       2689962.569      -1066095.385      -6362343.131
10 0 59399  75960.000000  0       2264447.971      -1061908.445      -6526898.232
10 0 59399  76020.000000  0       1829580.110      -1049536.851      -6664086.366
10 0 59399  76080.000000  0       1387243.576      -1028960.015      -6773342.018
10 0 59399  76140.000000  0        939352.337      -1000207.795      -6854215.151
10 0 59399  76200.000000  0        487841.645       -963360.543      -6906372.849
10 0 59399  76260.000000  0         34659.905       -918548.899      -6929600.431
10 0 59399  76320.000000  0       -418239.380       -865953.357      -6923802.196
10 0 59399  76380.000000  0       -868905.740       -805803.578      -6889001.841
10 0 59399  76440.000000  0      -1315399.907       -738377.417      -6825342.374
10 0 59399  76500.000000  0      -1755801.881       -663999.671      -6733085.566
10 0 59399  76560.000000  0      -2188218.928       -583040.615      -6612610.983
10 0 59399  76620.000000  0      -2610793.424       -495914.298      -6464414.567
10 0 59399  76680.000000  0      -3021710.549       -403076.583      -6289106.906
10 0 59399  76740.000000  0      -3419205.925       -305022.951      -6087411.135
10 0 59399  76800.000000  0      -3801573.193       -202286.072      -5860160.366
10 0 59399  76860.000000  0      -4167171.348        -95433.148      -5608294.567
10 0 59399  76920.000000  0      -4514431.768         14936.953      -5332857.058
10 0 59399  76980.000000  0      -4841865.017        128196.729      -5034990.641
10 0 59399  77040.000000  0      -5148067.430        243693.281      -4715933.336
10 0 59399  77100.000000  0      -5431727.423        360751.772      -4377013.667
10 0 59399  77160.000000  0      -5691631.449        478679.068      -4019645.458
10 0 59399  77220.000000  0      -5926669.497        596767.474      -3645322.249
10 0 59399  77280.000000  0      -6135840.254        714298.620      -3255611.387
10 0 59399  77340.000000  0      -6318255.802        830547.492      -2852147.645
10 0 59399  77400.000000  0      -6473145.788        944786.499      -2436626.510
10 0 59399  77460.000000  0      -6599861.085       1056289.615      -2010797.195
10 0 59399  77520.000000  0      -6697877.014       1164336.593      -1576455.377
10 0 59399  77580.000000  0      -6766796.021       1268217.204      -1135435.535
10 0 59399  77640.000000  0      -6806349.641       1367235.437       -689603.015
10 0 59399  77700.000000  0      -6816399.779       1460713.611       -240845.962
10 0 59399  77760.000000  0      -6796939.412       1547996.467        208932.796
10 0 59399  77820.000000  0      -6748092.723       1628455.198        657823.996
10 0 59399  77880.000000  0      -6670114.608       1701491.366       1103920.297
10 0 59399  77940.000000  0      -6563389.520       1766540.673       1545324.664
10 0 59399  78000.000000  0      -6428429.669       1823076.570       1980158.732
10 0 59399  78060.000000  0      -6265872.594       1870613.678       2406571.107
10 0 59399  78120.000000  0      -6076478.110       1908710.985       2822745.539
10 0 59399  78180.000000  0      -5861124.640       1936974.798       3226908.955
10 0 59399  78240.000000  0      -5620804.953       1955061.437       3617339.247
10 0 59399  78300.000000  0      -5356621.374       1962679.684       3992372.785
10 0 59399  78360.000000  0      -5069780.508       1959592.943       4350411.659
10 0 59399  78420.000000  0      -4761587.474       1945621.110       4689930.591
10 0 59399  78480.000000  0      -4433439.724       1920642.145       5009483.483
10 0 59399  78540.000000  0      -4086820.489       1884593.338       5307709.635
10 0 59399  78600.000000  0      -3723291.828       1837472.262       5583339.556
10 0 59399  78660.000000  0      -3344487.385       1779337.398       5835200.417
10 0 59399  78720.000000  0      -2952104.736       1710308.481       6062221.066
10 0 59399  78780.000000  0      -2547897.490       1630566.454       6263436.471
10 0 59399  78840.000000  0      -2133667.228       1540353.095       6437991.738
10 0 59399  78900.000000  0      -1711255.256       1439970.329       6585145.610
10 0 59399  78960.000000  0      -1282534.246       1329779.223       6704273.464
10 0 59399  79020.000000  0       -849399.839       1210198.695       6794869.798
10 0 59399  79080.000000  0       -413762.198       1081703.902       6856550.299
10 0 59399  79140.000000  0         22462.506        944824.300       6889053.416
99
